0 DELTA 1 DEB
1 03812U 68114D   13282.30973141 -.00000005  00000-0  29252-3 0   280
2 03812 101.9065 235.5965 0071958 023.3839 138.8473 12.37663729 24692
0 DELTA 1 DEB
1 03812U 68114D   13287.54084656 -.00000037  00000-0  53370-4 0   302
2 03812 101.9082 240.6900 0071918 013.6483 046.5621 12.37664157 25349
0 DELTA 1 DEB
1 03812U 68114D   13290.53256049 -.00000022  00000-0  16938-3 0   315
2 03812 101.9091 243.6029 0071872 008.1229 056.3808 12.37664093 25716
0 DELTA 1 DEB
1 03812U 68114D   13292.55256593 -.00000008  00000-0  27271-3 0   320
2 03812 101.9094 245.5701 0071851 004.3821 056.6848 12.37664098 25969
0 DELTA 1 DEB
1 03812U 68114D   13294.57263831 -.00000002  00000-0  32386-3 0   335
2 03812 101.9096 247.5374 0071835 000.6449 057.2837 12.37664242 26211
